[{"OBJECT_NAME":"STARLINK-31264","OBJECT_ID":"2024-017V","EPOCH":"2026-03-09T22:19:04.967904","MEAN_MOTION":15.30190428,"ECCENTRICITY":3.161e-5,"INCLINATION":53.1607,"RA_OF_ASC_NODE":292.7843,"ARG_OF_PERICENTER":124.7178,"MEAN_ANOMALY":235.3852,"EPHEMERIS_TYPE":0,"CLASSIFICATION_TYPE":"U","NORAD_CAT_ID":58845,"ELEMENT_SET_NO":999,"REV_AT_EPOCH":11881,"BSTAR":-8.818057e-6,"MEAN_MOTION_DOT":-6.2e-6,"MEAN_MOTION_DDOT":0},{"OBJECT_NAME":"RESURS-P 4","OBJECT_ID":"2024-061A","EPOCH":"2026-03-10T00:09:50.865408","MEAN_MOTION":15.32930455,"ECCENTRICITY":0.00024315,"INCLINATION":97.2654,"RA_OF_ASC_NODE":18.6595,"ARG_OF_PERICENTER":59.481,"MEAN_ANOMALY":300.6672,"EPHEMERIS_TYPE":0,"CLASSIFICATION_TYPE":"U","NORAD_CAT_ID":59371,"ELEMENT_SET_NO":999,"REV_AT_EPOCH":10857,"BSTAR":0.00016169192,"MEAN_MOTION_DOT":5.066e-5,"MEAN_MOTION_DDOT":0}]
